ONEWEB-0128             
1 47274U 20100S   25114.87012307  .00000457  00000+0  12350-2 0  9996
2 47274  87.8862  73.9229 0001768  79.3465 280.7863 13.12441850209872
ONEWEB-0129             
1 47275U 20100T   25114.84903585 -.00000106  00000+0 -32881-3 0  9996
2 47275  87.8858  73.8743 0001681 123.0228 237.1062 13.12444731209807
ONEWEB-0130             
1 47276U 20100U   25114.41918640  .00000393  00000+0  10582-2 0  9997
2 47276  87.8849  73.9636 0001824  84.5342 275.5995 13.12444281209718
ONEWEB-0131             
1 47277U 20100V   25115.40702249  .00000534  00000+0  14493-2 0  9996
2 47277  87.8850  73.7909 0001890  81.5589 278.5753 13.12441273209886
ONEWEB-0132             
1 47278U 20100W   25114.97879076 -.00000342  00000+0 -98585-3 0  9995
2 47278  87.8851  73.8769 0002058  79.0150 281.1210 13.12443996209721
ONEWEB-0133             
1 47279U 20100X   25115.29981915 -.00000330  00000+0 -95262-3 0  9994
2 47279  87.8855  73.7931 0001879  79.6582 280.4759 13.12444258209925
ONEWEB-0134             
1 47280U 20100Y   25115.42161600  .00000251  00000+0  66177-3 0  9995
2 47280  87.8852  73.7538 0001704  81.4284 278.7038 13.12440311209919
ONEWEB-0135             
1 47281U 20100Z   25114.85877758  .00000221  00000+0  57984-3 0  9993
2 47281  87.8857  73.8998 0001548  75.8150 284.3150 13.12444534209864
